OBJECT_NAME,OBJECT_ID,EPOCH,MEAN_MOTION,ECCENTRICITY,INCLINATION,RA_OF_ASC_NODE,ARG_OF_PERICENTER,MEAN_ANOMALY,EPHEMERIS_TYPE,CLASSIFICATION_TYPE,NORAD_CAT_ID,ELEMENT_SET_NO,REV_AT_EPOCH,BSTAR,MEAN_MOTION_DOT,MEAN_MOTION_DDOT
ONEWEB-0578,2023-043X,2026-07-12T16:30:44.840736,13.21826533,.0002137,87.9237,238.8987,86.4959,273.6419,0,U,56067,999,16160,.25192962E-3,.117E-5,0
ONEWEB-0579,2023-043Y,2026-07-12T14:29:35.999232,13.21827464,.0002168,87.9259,238.9115,106.9274,253.2097,0,U,56068,999,16160,.11252E-3,.59E-6,0
ONEWEB-0581,2023-043Z,2026-07-12T12:47:52.607328,13.16595240,.00015008,87.9076,223.7499,88.3111,271.8192,0,U,56069,999,16229,.3610213E-3,.151E-5,0
ONEWEB-0609,2023-043AA,2026-07-12T15:51:14.443776,13.15547093,.00021523,87.8984,254.1356,97.8941,262.2434,0,U,56070,999,15978,-.32672857E-3,-.11E-5,0
ONEWEB-0613,2023-043AB,2026-07-12T15:47:49.367328,13.15547973,.0002215,87.8988,254.1482,104.8343,255.3033,0,U,56071,999,15978,-.14434853E-3,-.42E-6,0
ONEWEB-0630,2023-043AC,2026-07-12T15:40:58.569888,13.15549391,.00021395,87.8985,254.1241,99.8148,260.3224,0,U,56072,999,15977,-.53075606E-3,-.187E-5,0
ONEWEB-0632,2023-043AD,2026-07-12T17:23:39.767712,13.15547794,.00018816,87.8989,254.1254,98.8770,261.2574,0,U,56073,999,15978,-.17213155E-3,-.52E-6,0
ONEWEB-0633,2023-043AE,2026-07-13T04:11:40.281792,13.15548878,.00023871,87.8993,254.0133,103.9282,256.2113,0,U,56074,999,15982,.13687828E-3,.64E-6,0
ONEWEB-0634,2023-043AF,2026-07-12T16:54:00.184320,13.15548008,.00023309,87.8989,254.1450,92.4356,267.7041,0,U,56075,999,15975,.20726029E-3,.91E-6,0
ONEWEB-0635,2023-043AG,2026-07-12T16:47:09.257280,13.15547382,.00018354,87.8997,254.1109,93.9011,266.2329,0,U,56076,999,15978,.43976374E-3,.178E-5,0
ONEWEB-0636,2023-043AH,2026-07-13T03:32:52.308960,13.15547782,.00018511,87.8989,254.0274,98.0516,262.0824,0,U,56077,999,15982,.34578893E-3,.143E-5,0
ONEWEB-0637,2023-043AJ,2026-07-12T16:26:36.915936,13.15548282,.00020007,87.8983,254.1346,90.0065,270.1295,0,U,56078,999,15978,.28991859E-3,.122E-5,0
ONEWEB-0647,2023-043AK,2026-07-12T16:19:46.166016,13.15549087,.00019844,87.8988,254.1470,97.8258,262.3098,0,U,56079,999,15977,.106831E-3,.53E-6,0
ONEWEB-0651,2023-043AL,2026-07-13T06:49:06.594240,13.15547931,.00018631,87.8984,254.0208,93.0581,267.0762,0,U,56080,999,16105,.85323989E-4,.45E-6,0
ONEWEB-0718,2023-043AM,2026-07-12T16:06:04.680000,13.15549252,.00025577,87.9000,254.1216,96.8992,263.2429,0,U,56081,999,15978,-.22295539E-3,-.71E-6,0
ONEWEB-0561,2023-068A,2026-07-13T04:22:25.590432,13.20769683,.00017354,87.9190,269.2632,103.8529,256.2797,0,U,56710,999,15293,.12134795E-3,.62E-6,0
ONEWEB-0668,2023-068B,2026-07-12T14:00:50.078880,13.16595039,.000235,87.9076,223.7283,82.6712,277.4686,0,U,56711,999,15512,.22426E-4,.21E-6,0
ONEWEB-0676,2023-068C,2026-07-12T14:12:14.614848,13.16594233,.0001725,87.9075,223.7334,93.9054,266.2275,0,U,56712,999,15504,.2978305E-5,.14E-6,0
ONEWEB-0677,2023-068D,2026-07-13T04:05:29.022720,13.20771716,.00018994,87.9188,269.2574,88.7913,271.3437,0,U,56713,999,15323,.21086818E-3,.99E-6,0
ONEWEB-0678,2023-068E,2026-07-13T04:07:06.428352,13.15548229,.00020129,87.8996,254.0183,105.8524,254.2828,0,U,56714,999,15270,.27528689E-3,.116E-5,0
ONEWEB-0679,2023-068F,2026-07-12T15:02:23.669376,13.16594183,.00020511,87.9087,223.7160,77.2771,282.8589,0,U,56715,999,15507,.14008155E-3,.66E-6,0
ONEWEB-0680,2023-068G,2026-07-12T16:21:02.103840,13.21825787,.0002329,87.9242,238.8994,81.2146,278.9251,0,U,56716,999,15446,.13337928E-3,.68E-6,0
ONEWEB-0681,2023-068H,2026-07-12T15:53:10.545504,13.21827576,.00010916,87.9240,238.9038,89.2485,270.8774,0,U,56717,999,15445,.71754191E-4,.43E-6,0
ONEWEB-0682,2023-068J,2026-07-12T15:54:40.493088,13.15548172,.00020599,87.8989,254.1206,89.2252,270.9114,0,U,56718,999,15280,-.1167783E-3,-.31E-6,0
ONEWEB-0683,2023-068K,2026-07-12T16:28:53.849568,13.15548327,.00021804,87.9010,254.1130,94.6429,265.4951,0,U,56719,999,15277,.36163316E-3,.149E-5,0
ONEWEB-0684,2023-068L,2026-07-13T03:37:26.362848,13.15549482,.00029525,87.8990,254.0124,123.1697,236.9717,0,U,56720,999,15266,.353134E-3,.146E-5,0
ONEWEB-0686,2023-068M,2026-07-12T15:54:50.358240,13.16593292,.00024169,87.9066,223.7314,94.4602,265.6805,0,U,56721,999,15506,-.20681442E-3,-.66E-6,0
ONEWEB-0694,2023-068N,2026-07-12T14:14:31.273728,13.16593326,.00022976,87.9088,223.7147,84.7662,275.3731,0,U,56722,999,15511,-.33212184E-4,0,0
ONEWEB-0696,2023-068P,2026-07-12T17:28:12.908352,13.15549745,.00020081,87.8985,254.1335,108.2260,251.9089,0,U,56723,999,15272,-.17376293E-3,-.53E-6,0
ONEWEB-0703,2023-068Q,2026-07-12T15:52:22.908000,13.15548102,.00016409,87.8986,254.1272,123.0948,237.0340,0,U,56724,999,15260,-.15878582E-3,-.47E-6,0
